{"version": 0.6, "generator": "Overpass API 0.7.57.1 74a55df1", "osm3s": {"timestamp_osm_base": "2021-12-11T18:52:15Z", "copyright": "The data included in this document is from www.openstreetmap.org. The data is made available under ODbL."}, "elements": [{"type": "node", "id": 1272255773, "lat": 64.5302408, "lon": 40.5595625, "tags": {"amenity": "fast_food", "contact:instagram": "https://www.instagram.com/gryadka_family/", "contact:phone": "+7 953 9390472", "contact:vk": "https://vk.com/gryadka29", "contact:website": "http://gryadka-family.ru/restorany/gryadka-na-lomonosova-18/", "name": "\u041a\u0443\u043b\u0438\u043d\u0430\u0440\u0438\u044f \"\u0413\u0440\u044f\u0434\u043a\u0430\"", "opening_hours": "Mo-Fr 08:30-19:00; Sa 09:00-17:00", "operator": "\u0418\u041f \u0420\u043e\u043c\u0430\u043d\u043e\u0432\u0430 \u0410.\u0421.", "wheelchair": "no"}}, {"type": "node", "id": 1487647118, "lat": 64.5478366, "lon": 40.5759101, "tags": {"amenity": "fast_food", "name": "\u0421\u0442\u043e\u043b\u043e\u0432\u0430\u044f"}}, {"type": "node", "id": 1531954631, "lat": 64.5430025, "lon": 40.5127746, "tags": {"amenity": "fast_food", "name": "\u041a\u043e\u0444\u0435 & \u0432\u0430\u0444\u043b\u0438", "opening_hours": "Mo-Fr 10:00-19:00; Sa, Su 11:00-19:00", "wheelchair": "no"}}, {"type": "node", "id": 1691233175, "lat": 64.5030779, "lon": 40.6783655, "tags": {"amenity": "fast_food", "name": "\u0428\u0430\u0443\u0440\u043c\u0435\u043d\u043d\u0430\u044f", "opening_hours": "Mo-Su 10:00-23:00"}}, {"type": "node", "id": 1893456228, "lat": 64.5030201, "lon": 40.6781871, "tags": {"amenity": "fast_food", "name": "\u0411\u043e\u043d\u0443\u0441", "opening_hours": "24/7", "wheelchair": "no"}}, {"type": "node", "id": 1908339931, "lat": 64.4928093, "lon": 40.7128039}, {"type": "node", "id": 1908339944, "lat": 64.4928774, "lon": 40.7126117}, {"type": "node", "id": 1908339970, "lat": 64.4928583, "lon": 40.7128975}, {"type": "node", "id": 1908339976, "lat": 64.4929264, "lon": 40.7127052}, {"type": "node", "id": 2071223996, "lat": 64.5441903, "lon": 40.5169361}, {"type": "node", "id": 2071223998, "lat": 64.5441951, "lon": 40.5168747}, {"type": "node", "id": 2071224009, "lat": 64.5442365, "lon": 40.5169556}, {"type": "node", "id": 2071224011, "lat": 64.5442413, "lon": 40.5168942}, {"type": "node", "id": 2086878099, "lat": 64.5301046, "lon": 40.5595704}, {"type": "node", "id": 2086878104, "lat": 64.530118, "lon": 40.5596284}, {"type": "node", "id": 2086878115, "lat": 64.5301363, "lon": 40.5595309}, {"type": "node", "id": 2086878122, "lat": 64.5301497, "lon": 40.5595889}, {"type": "node", "id": 2146289882, "lat": 64.5595317, "lon": 40.5250921}, {"type": "node", "id": 2146289883, "lat": 64.55954, "lon": 40.5250034}, {"type": "node", "id": 2146289885, "lat": 64.5596379, "lon": 40.525146}, {"type": "node", "id": 2146289887, "lat": 64.5596462, "lon": 40.5250573}, {"type": "node", "id": 2296420154, "lat": 64.5460611, "lon": 40.5483749}, {"type": "node", "id": 2296420155, "lat": 64.5460966, "lon": 40.5485609}, {"type": "node", "id": 2296420156, "lat": 64.5461364, "lon": 40.5482971}, {"type": "node", "id": 2296420157, "lat": 64.5461719, "lon": 40.5484831}, {"type": "node", "id": 2300171745, "lat": 64.4533243, "lon": 40.6150903, "tags": {"amenity": "fast_food", "name": "\u041b\u0430\u043a\u043e\u043c\u043a\u0430", "opening_hours": "24/7", "wheelchair": "no"}}, {"type": "node", "id": 2320790894, "lat": 64.5567217, "lon": 40.5456986, "tags": {"amenity": "fast_food", "name": "\u041f\u043e\u0435\u0448\u044c-\u043a\u0430!", "opening_hours": "24/7", "operator": "\u041e\u041e\u041e \"\u041a\u0428\u041f \"\u0414\u0440\u0443\u0436\u0431\u0430\"", "wheelchair": "no"}}, {"type": "node", "id": 2329531274, "lat": 64.5460772, "lon": 40.5301496}, {"type": "node", "id": 2329531276, "lat": 64.5460859, "lon": 40.5300676}, {"type": "node", "id": 2329531278, "lat": 64.5461249, "lon": 40.5301768}, {"type": "node", "id": 2329531279, "lat": 64.5461335, "lon": 40.5300948}, {"type": "node", "id": 2347468396, "lat": 64.5477867, "lon": 40.5617199, "tags": {"amenity": "fast_food", "cuisine": "coffee", "name": "\u0421\u043c\u0430\u0439\u043b", "opening_hours": "Mo-Sa 08:00-21:00; Su 10:00-21:00"}}, {"type": "node", "id": 2422333823, "lat": 64.5711963, "lon": 40.5240323, "tags": {"amenity": "fast_food", "name": "#cheburek", "opening_hours": "24/7"}}, {"type": "node", "id": 2462208543, "lat": 64.5387489, "lon": 40.5115512, "tags": {"amenity": "fast_food"}}, {"type": "node", "id": 2503332345, "lat": 64.5507683, "lon": 40.5728822, "tags": {"amenity": "fast_food", "cuisine": "sandwich", "internet_access": "wlan", "internet_access:fee": "no", "name": "Starfoods", "opening_hours": "Mo-Su 10:00-21:00", "takeaway": "yes", "website": "http://xn--80ai9acdcjh.xn--p1ai/"}}, {"type": "node", "id": 2732402058, "lat": 64.546731, "lon": 40.5209615, "tags": {"amenity": "fast_food", "brand": "Coffee Like", "brand:wikidata": "Q55662627", "brand:wikipedia": "ru:Coffee Like", "contact:email": "hotline@coffee-like.com", "contact:phone": "+7 341 2908292;+7 800 3334130", "contact:website": "https://coffee-like.com/", "cuisine": "coffee_shop", "name": "Coffee Like", "opening_hours": "Mo-Su 09:00-21:00", "operator": "\u041e\u041e\u041e \"\u041a\u043e\u0444\u0435 \u041b\u0430\u0439\u043a \u0410\u0440\u0445\u0430\u043d\u0433\u0435\u043b\u044c\u0441\u043a\"", "takeaway": "yes", "wheelchair": "limited"}}, {"type": "node", "id": 2899897687, "lat": 64.5259664, "lon": 40.6004347, "tags": {"amenity": "fast_food", "cuisine": "sushi", "name": "Vkuss \u0441\u0443\u0448\u0438", "opening_hours": "Mo-Su 10:00-22:30", "phone": "+7 8182 435535", "wheelchair": "no"}}, {"type": "node", "id": 2927360381, "lat": 64.5445599, "lon": 40.5163881, "tags": {"amenity": "fast_food", "cuisine": "sandwich", "internet_access": "wlan", "internet_access:fee": "no", "level": "4", "name": "Starfoods", "opening_hours": "10:00-21:00", "takeaway": "yes", "website": "http://xn--80ai9acdcjh.xn--p1ai/"}}, {"type": "node", "id": 2954910465, "lat": 64.5477508, "lon": 40.5762739, "tags": {"amenity": "fast_food", "name": "\u041f\u044b\u0448\u0435\u0447\u043d\u0430\u044f \"\u041f\u0430\u043b\u044c\u0447\u0438\u043a\u0438 \u043e\u0431\u043b\u0438\u0436\u0435\u0448\u044c\"", "opening_hours": "Mo-Sa 08:00-20:00; Su 08:00-19:00", "wheelchair": "no"}}, {"type": "node", "id": 2957726273, "lat": 64.5444874, "lon": 40.5163554, "tags": {"amenity": "fast_food", "brand": "Subway", "brand:wikidata": "Q244457", "brand:wikipedia": "en:Subway (restaurant)", "contact:website": "www.subway29.ru", "cuisine": "sandwich", "level": "4", "name": "Subway", "opening_hours": "Mo-Su 10:00-21:00", "takeaway": "yes", "wheelchair": "limited"}}, {"type": "node", "id": 3010090374, "lat": 64.5565292, "lon": 40.522795, "tags": {"amenity": "fast_food", "cuisine": "sushi; pizza", "name": "\u041a\u0438\u043c \u0431\u0430\u043f", "name:en": "Sushi Kim Bap", "opening_hours": "Mo-Su 10:00-23:00", "operator": "\u0418\u041f \u0418\u0441\u043c\u0430\u0438\u043b\u043e\u0432 \u0410\u0431\u0434\u0438\u043b\u0432\u0430\u0441\u0438\u0442 \u041d\u0435\u043c\u0430\u0442\u0438\u043b\u043b\u043e\u0435\u0432\u0438\u0447", "phone": "+7 8182 405010;+7 8182 405011", "wheelchair": "no"}}, {"type": "node", "id": 3100984413, "lat": 64.5658247, "lon": 40.5357896, "tags": {"amenity": "fast_food", "name": "\u0425\u043b\u0435\u0431 \u0432 \u0442\u0430\u043d\u0434\u044b\u0440\u0435", "opening_hours": "Mo-Su 07:00-21:00", "phone": "+7 8182 430487", "wheelchair": "limited"}}, {"type": "node", "id": 3326065590, "lat": 64.5320039, "lon": 40.5294286, "tags": {"alt_name": "McDonald's", "amenity": "fast_food", "brand": "\u041c\u0430\u043a\u0434\u043e\u043d\u0430\u043b\u0434\u0441", "brand:en": "McDonald's", "brand:ru": "\u041c\u0430\u043a\u0434\u043e\u043d\u0430\u043b\u0434\u0441", "brand:wikidata": "Q38076", "brand:wikipedia": "en:McDonald's", "cuisine": "burger", "internet_access": "wlan", "name": "\u041c\u0430\u043a\u0434\u043e\u043d\u0430\u043b\u0434\u0441", "name:en": "McDonald's", "name:ru": "\u041c\u0430\u043a\u0434\u043e\u043d\u0430\u043b\u0434\u0441", "opening_hours": "Mo-Su 07:00-23:00", "operator": "\u041e\u041e\u041e \"\u041c\u0430\u043a\u0434\u043e\u043d\u0430\u043b\u0434\u0441\"", "takeaway": "yes"}}, {"type": "node", "id": 3334768493, "lat": 64.5421187, "lon": 40.5351036, "tags": {"amenity": "fast_food", "brand": "\u041c\u0430\u043a\u0434\u043e\u043d\u0430\u043b\u0434\u0441", "brand:en": "McDonald's", "brand:ru": "\u041c\u0430\u043a\u0434\u043e\u043d\u0430\u043b\u0434\u0441", "brand:wikidata": "Q38076", "brand:wikipedia": "en:McDonald\u2019s", "contact:facebook": "https://www.facebook.com/mcdonaldsrussia", "contact:phone": "+7 8182 421468", "contact:website": "https://mcdonalds.ru", "cuisine": "burger", "int_name": "McDonald's", "name": "\u041c\u0430\u043a\u0434\u043e\u043d\u0430\u043b\u0434\u0441", "name:en": "McDonald's", "name:ru": "\u041c\u0430\u043a\u0434\u043e\u043d\u0430\u043b\u0434\u0441", "takeaway": "yes"}}, {"type": "node", "id": 3420393771, "lat": 64.5320492, "lon": 40.5296716, "tags": {"alt_name": "McDonald's", "amenity": "fast_food", "name": "\u041c\u0430\u043a\u042d\u043a\u0441\u043f\u0440\u0435\u0441\u0441", "opening_hours": "Mo-Su 00:00-03:00, 07:00-24:00", "operator": "\u041e\u041e\u041e \"\u041c\u0430\u043a\u0434\u043e\u043d\u0430\u043b\u0434\u0441\""}}, {"type": "node", "id": 3493119050, "lat": 64.5303939, "lon": 40.5377443, "tags": {"amenity": "fast_food", "name": "\u041a\u0443\u043b\u0438\u043d\u0430\u0440\u0438\u044f \"\u041a\u0443\u0448\u0430\u0442\u044c \u043f\u043e\u0434\u0430\u043d\u043e\"", "opening_hours": "09:00-21:00", "phone": "+7 8182 211511", "wheelchair": "no"}}, {"type": "node", "id": 3493119059, "lat": 64.5307056, "lon": 40.5380554, "tags": {"amenity": "fast_food", "cuisine": "kebab", "name": "\u0428\u0430\u0448\u043b\u044b\u0447\u043d\u044b\u0439 \u0434\u0432\u043e\u0440\u0438\u043a", "opening_hours": "Mo-Sa 10:00-23:00; Su 11:00-22:00", "phone": "+7 962 6611118", "takeaway": "only"}}, {"type": "node", "id": 3611406809, "lat": 64.5340001, "lon": 40.5579421}, {"type": "node", "id": 3611406814, "lat": 64.5339743, "lon": 40.5579725}, {"type": "node", "id": 3611406817, "lat": 64.5339867, "lon": 40.5579237}, {"type": "node", "id": 3611406818, "lat": 64.5339876, "lon": 40.557991}, {"type": "node", "id": 3737539244, "lat": 64.5279043, "lon": 40.5682981, "tags": {"amenity": "fast_food", "name": "\u041a\u043e\u0444\u0435 \u0442\u0430\u0439\u043c", "opening_hours": "Mo-Su 07:00-23:00", "wheelchair": "limited"}}, {"type": "node", "id": 3741934982, "lat": 64.5966116, "lon": 40.5836953, "tags": {"amenity": "fast_food", "name": "\u041f\u043e\u0435\u0448\u044c-\u043a\u0430!", "opening_hours": "24/7", "operator": "\u041e\u041e\u041e \"\u041a\u0428\u041f \"\u0414\u0440\u0443\u0436\u0431\u0430\""}}, {"type": "node", "id": 3750803792, "lat": 64.5306123, "lon": 40.5379967, "tags": {"amenity": "fast_food", "fixme": "opening_hours", "name": "\u0414\u043e\u043d \u0428\u0430\u0443\u0440\u043c\u0430\u0444\u0438\u044f", "opening_hours": "Mo-Su 09:00-21:00"}}, {"type": "node", "id": 3788205109, "lat": 64.5504703, "lon": 40.5744702, "tags": {"amenity": "fast_food", "opening_hours": "08:00-12:00,13:00-21:00"}}, {"type": "node", "id": 3793441063, "lat": 64.530437, "lon": 40.6166644, "tags": {"amenity": "fast_food", "name": "\u0411\u044b\u0441\u0442\u0440\u0430\u044f \u0448\u0430\u0443\u0440\u043c\u0430", "wheelchair": "no"}}, {"type": "node", "id": 3793441065, "lat": 64.5260133, "lon": 40.6121475, "tags": {"amenity": "fast_food", "name": "\u0428\u0430\u0443\u0440\u043c\u0435\u043d\u043d\u0430\u044f", "opening_hours": "24/7"}}, {"type": "node", "id": 3801955480, "lat": 64.5377652, "lon": 40.5687976, "tags": {"amenity": "fast_food", "contact:instagram": "https://www.instagram.com/sushi_rai_arkhangelsk/", "contact:phone": "+7 8182 442433;+7 8182 442488", "contact:vk": "https://vk.com/clubsushiarh", "name": "\u0421\u0443\u0448\u0438 \u0440\u0430\u0439", "opening_hours": "Mo-Su 10:00-23:00", "operator": "\u0418\u041f \u041e\u0440\u043b\u043e\u0432\u0430 \u0412\u0438\u043e\u043b\u0435\u0442\u0442\u0430 \u0410\u043b\u0435\u043a\u0441\u0430\u043d\u0434\u0440\u043e\u0432\u043d\u0430", "wheelchair": "limited"}}, {"type": "node", "id": 3837935105, "lat": 64.5103358, "lon": 40.6644284, "tags": {"amenity": "fast_food", "level": "1", "name": "\u0413\u043e\u0440\u044f\u0447\u0430\u044f \u043a\u0443\u043a\u0443\u0440\u0443\u0437\u0430", "opening_hours": "10:00-22:00"}}, {"type": "node", "id": 3880479970, "lat": 64.5492016, "lon": 40.5257998, "tags": {"amenity": "fast_food", "name": "\u041a\u043e\u0444\u0435 \u0442\u0430\u0439\u043c", "opening_hours": "Mo-Fr 09:30-16:00", "wheelchair": "no"}}, {"type": "node", "id": 4004309310, "lat": 64.5300399, "lon": 40.5409531, "tags": {"amenity": "fast_food", "name": "\u041f\u0435\u0442\u0440\u043e\u043a\u0430\u0444\u0435", "opening_hours": "08:00-22:00"}}, {"type": "node", "id": 4006164184, "lat": 64.5529052, "lon": 40.5251974, "tags": {"amenity": "fast_food", "contact:instagram": "https://www.instagram.com/arhcoffeeco", "contact:phone": "+7 8182 492209", "contact:vk": "https://vk.com/arhcoffeeco", "cuisine": "coffee_shop", "name": "Arh Coffee Co.", "opening_hours": "Mo-Fr 08:00-21:00; Sa-Su 09:00-21:30", "wheelchair": "no"}}, {"type": "node", "id": 4110417943, "lat": 64.5322769, "lon": 40.5278, "tags": {"amenity": "fast_food", "brand": "Subway", "brand:wikidata": "Q244457", "brand:wikipedia": "en:Subway (restaurant)", "contact:website": "www.subway29.ru", "cuisine": "sandwich", "name": "Subway", "opening_hours": "10:00-22:00", "takeaway": "yes", "wheelchair": "limited"}}, {"type": "node", "id": 4133493732, "lat": 64.5323242, "lon": 40.5276076, "tags": {"amenity": "fast_food", "cuisine": "sandwich", "level": "4", "name": "Starfoods", "opening_hours": "10:00-24:00", "takeaway": "yes", "website": "http://xn--80ai9acdcjh.xn--p1ai/"}}, {"type": "node", "id": 4166409835, "lat": 64.5460831, "lon": 40.5300945, "tags": {"entrance": "yes"}}, {"type": "node", "id": 4232398739, "lat": 64.510107, "lon": 40.6715859, "tags": {"amenity": "fast_food", "name": "\u041a\u0443\u043b\u0438\u043d\u0430\u0440\u0438\u044f", "opening_hours": "Mo-Fr 09:00-20:00; Sa,Su 10:00-19:00", "wheelchair": "no"}}, {"type": "node", "id": 4461033826, "lat": 64.5241469, "lon": 40.6005133, "tags": {"amenity": "fast_food", "cuisine": "coffee_shop", "fixme": "\u043f\u0440\u043e\u0432\u0435\u0440\u0438\u0442\u044c \u0432\u0440\u0435\u043c\u044f \u0440\u0430\u0431\u043e\u0442\u044b, \u043d\u0435\u0442 \u0432\u044b\u0432\u0435\u0441\u043a\u0438", "name": "Coffee Grizzly", "opening_hours": "Mo-Su 10:00-21:00", "wheelchair": "yes"}}, {"type": "node", "id": 4461033830, "lat": 64.5239991, "lon": 40.5991991, "tags": {"amenity": "fast_food", "cuisine": "sandwich", "level": "3", "name": "Starfoods", "opening_hours": "Mo-Su 10:00-21:00", "website": "http://xn--80ai9acdcjh.xn--p1ai/", "wheelchair": "yes"}}, {"type": "node", "id": 4568656094, "lat": 64.5355342, "lon": 40.5227064, "tags": {"amenity": "fast_food", "cuisine": "coffee_shop", "level": "1", "name": "Coffee Way", "name:en": "Coffee Way", "name:ru": "Coffee Way", "wheelchair": "limited"}}, {"type": "node", "id": 4590010130, "lat": 64.5239314, "lon": 40.5993969, "tags": {"amenity": "fast_food", "brand": "\u041c\u0430\u043a\u0434\u043e\u043d\u0430\u043b\u0434\u0441", "brand:wikipedia": "en:McDonald\u2019s", "contact:facebook": "https://www.facebook.com/mcdonaldsrussia", "contact:phone": "+7 8182 413038", "contact:website": "https://mcdonalds.ru", "cuisine": "burger", "int_name": "McDonald's", "name": "\u041c\u0430\u043a\u0434\u043e\u043d\u0430\u043b\u0434\u0441", "name:en": "McDonald's", "name:ru": "\u041c\u0430\u043a\u0434\u043e\u043d\u0430\u043b\u0434\u0441", "opening_hours": "Mo-Su 09:00-21:30", "wheelchair": "yes"}}, {"type": "node", "id": 4590664360, "lat": 64.5156569, "lon": 40.6696258, "tags": {"amenity": "fast_food", "opening_hours": "24/7"}}, {"type": "node", "id": 4591499493, "lat": 64.5238644, "lon": 40.5995813, "tags": {"amenity": "fast_food", "fixme": "\u043f\u0440\u043e\u0432\u0435\u0440\u0438\u0442\u044c \u0432\u0440\u0435\u043c\u044f \u0440\u0430\u0431\u043e\u0442\u044b, \u043d\u0435\u0442 \u0432\u044b\u0432\u0435\u0441\u043a\u0438", "name": "Cook's Band", "opening_hours": "Mo-Su 10:00-21:00", "wheelchair": "yes"}}, {"type": "node", "id": 4591499497, "lat": 64.523906, "lon": 40.5999863, "tags": {"amenity": "fast_food", "cuisine": "sandwich", "fixme": "\u043f\u0440\u043e\u0432\u0435\u0440\u0438\u0442\u044c \u0432\u0440\u0435\u043c\u044f \u0440\u0430\u0431\u043e\u0442\u044b, \u043d\u0435\u0442 \u0432\u044b\u0432\u0435\u0441\u043a\u0438", "name": "Subway", "opening_hours": "Mo-Su 10:00-21:00", "wheelchair": "yes"}}, {"type": "node", "id": 4609647905, "lat": 64.549256, "lon": 40.5502077, "tags": {"amenity": "fast_food", "brand": "\u0414\u043e\u0434\u043e \u041f\u0438\u0446\u0446\u0430", "brand:en": "Dodo Pizza", "brand:ru": "\u0414\u043e\u0434\u043e \u041f\u0438\u0446\u0446\u0430", "brand:wikidata": "Q61949318", "brand:wikipedia": "ru:\u0414\u043e\u0434\u043e \u041f\u0438\u0446\u0446\u0430", "contact:phone": "+7 800 3330060", "contact:vk": "https://vk.com/dodo_arh", "contact:website": "https://dodopizza.ru/arkhangelsk", "cuisine": "pizza", "delivery": "yes", "name": "\u0414\u043e\u0434\u043e \u041f\u0438\u0446\u0446\u0430", "name:en": "Dodo Pizza", "name:ru": "\u0414\u043e\u0434\u043e \u041f\u0438\u0446\u0446\u0430", "opening_hours": "Mo-Su 10:00-21:00", "operator": "\u041e\u041e\u041e \"\u0410\u0433\u0440\u043e\u0442\u0440\u0435\u0439\u0434\u0433\u0440\u0443\u043f\u043f\"", "takeaway": "yes", "wheelchair": "limited"}}, {"type": "node", "id": 4609647906, "lat": 64.5498205, "lon": 40.5507871, "tags": {"amenity": "fast_food", "cuisine": "burger", "name": "Starfoods", "opening_hours": "Mo-Su 10:00-21:00"}}, {"type": "node", "id": 4739956843, "lat": 64.531173, "lon": 40.5271655, "tags": {"amenity": "fast_food", "brand": "Coffee Like", "brand:wikidata": "Q55662627", "brand:wikipedia": "ru:Coffee Like", "cuisine": "coffee_shop", "name": "Coffee Like", "operator": "\u041e\u041e\u041e \"\u041a\u043e\u0444\u0435 \u041b\u0430\u0439\u043a \u0410\u0440\u0445\u0430\u043d\u0433\u0435\u043b\u044c\u0441\u043a\"", "takeaway": "yes"}}, {"type": "node", "id": 4758744485, "lat": 64.5354208, "lon": 40.5283888, "tags": {"amenity": "fast_food", "cuisine": "coffee_shop", "name": "Coffee Like", "opening_hours": "Mo-Su 09:00-22:00", "operator": "\u041e\u041e\u041e \"\u041a\u043e\u0444\u0435 \u041b\u0430\u0439\u043a \u0410\u0440\u0445\u0430\u043d\u0433\u0435\u043b\u044c\u0441\u043a\""}}, {"type": "node", "id": 4809747024, "lat": 64.5864974, "lon": 40.525704, "tags": {"amenity": "fast_food", "name": "\u041b\u044e\u0431\u0438\u043c\u044b\u0439 \u0434\u0432\u043e\u0440\u0438\u043a", "name:ru": "\u041b\u044e\u0431\u0438\u043c\u044b\u0439 \u0434\u0432\u043e\u0440\u0438\u043a", "opening_hours": "24/7"}}, {"type": "node", "id": 4820574123, "lat": 64.5320537, "lon": 40.5371309, "tags": {"amenity": "fast_food", "description": "\u0448\u0430\u0443\u0440\u043c\u0430 \u0438 \u0448\u0430\u0448\u043b\u044b\u043a\u0438", "name": "\u041a\u0443\u0440 & \u0441\u0432\u0438\u043d", "opening_hours": "Mo-Su 10:00-22:00", "wheelchair": "no"}}, {"type": "node", "id": 4833411074, "lat": 64.5414402, "lon": 40.5690462, "tags": {"amenity": "fast_food", "contact:email": "hotline@coffee-like.com", "contact:phone": "+7 341 2908292;+7 800 3334130", "contact:website": "https://coffee-like.com/", "cuisine": "coffee_shop", "name": "Coffee Like", "opening_hours": "Mo-Su 09:00-21:00", "operator": "\u041e\u041e\u041e \"\u041a\u043e\u0444\u0435 \u041b\u0430\u0439\u043a \u0410\u0440\u0445\u0430\u043d\u0433\u0435\u043b\u044c\u0441\u043a\""}}, {"type": "node", "id": 5043089163, "lat": 64.5417818, "lon": 40.5290526, "tags": {"alt_name": "\u041c\u0430\u043a\u0434\u043e\u043d\u0430\u043b\u044c\u0434\u0441", "amenity": "fast_food", "brand": "\u041c\u0430\u043a\u0434\u043e\u043d\u0430\u043b\u0434\u0441", "brand:en": "McDonald's", "brand:ru": "\u041c\u0430\u043a\u0434\u043e\u043d\u0430\u043b\u0434\u0441", "brand:wikidata": "Q38076", "brand:wikipedia": "en:McDonald\u2019s", "contact:facebook": "https://www.facebook.com/mcdonaldsrussia", "contact:phone": "+7 8182 422317", "contact:website": "https://mcdonalds.ru", "cuisine": "burger", "int_name": "McDonald's", "internet_access": "wlan", "level": "1", "name": "\u041c\u0430\u043a\u0434\u043e\u043d\u0430\u043b\u0434\u0441", "name:de": "McDonald's", "name:en": "McDonald's", "name:ru": "\u041c\u0430\u043a\u0434\u043e\u043d\u0430\u043b\u0434\u0441", "opening_hours": "Mo-Su 07:00-23:30", "operator": "\u041e\u041e\u041e \"\u041c\u0430\u043a\u0434\u043e\u043d\u0430\u043b\u0434\u0441\"", "smoking": "no", "takeaway": "yes", "wheelchair": "limited"}}, {"type": "node", "id": 5043089164, "lat": 64.541885, "lon": 40.5294443, "tags": {"amenity": "fast_food", "cuisine": "burger", "drive_through": "yes", "internet_access": "wlan", "level": "1", "name": "\u041c\u0430\u043a\u0430\u0432\u0442\u043e", "name:en": "McDRIVE", "opening_hours": "Mo-Su 00:00-04:00,05:00-24:00", "operator": "\u041e\u041e\u041e \"\u041c\u0430\u043a\u0434\u043e\u043d\u0430\u043b\u0434\u0441\"", "phone": "+7 800 7074419", "takeaway": "only", "website": "https://mcdonalds.ru/"}}, {"type": "node", "id": 5198227522, "lat": 64.5497866, "lon": 40.5508345, "tags": {"amenity": "fast_food", "name": "Vkuss \u0441\u0443\u0448\u0438", "opening_hours": "closed", "wheelchair": "limited"}}, {"type": "node", "id": 5204508040, "lat": 64.5305852, "lon": 40.5948678, "tags": {"amenity": "fast_food", "cuisine": "cake;coffee_shop", "opening_hours": "Mo-Su 09:00-20:00"}}, {"type": "node", "id": 5281809121, "lat": 64.5444141, "lon": 40.5170928, "tags": {"amenity": "fast_food", "name": "Coffee Way", "opening_hours": "Mo-Fr 08:00-21:00; Sa-Su 09:00-21:00"}}, {"type": "node", "id": 5289898626, "lat": 64.5102592, "lon": 40.6642381, "tags": {"amenity": "fast_food", "level": "1", "name": "\u0412\u0430\u0443! \u0414\u0435\u0441\u0435\u0440\u0442"}}, {"type": "node", "id": 5289907321, "lat": 64.5102362, "lon": 40.6644369, "tags": {"amenity": "fast_food", "brand": "Coffee Like", "brand:wikidata": "Q55662627", "brand:wikipedia": "ru:Coffee Like", "contact:email": "hotline@coffee-like.com", "contact:phone": "+7 341 2908292;+7 800 3334130", "contact:website": "https://coffee-like.com/", "cuisine": "coffee_shop", "level": "1", "name": "Coffee Like", "opening_hours": "Mo-Su 08:00-21:00", "operator": "\u041e\u041e\u041e \"\u041a\u043e\u0444\u0435 \u041b\u0430\u0439\u043a \u0410\u0440\u0445\u0430\u043d\u0433\u0435\u043b\u044c\u0441\u043a\"", "takeaway": "yes"}}, {"type": "node", "id": 5306261566, "lat": 64.5380221, "lon": 40.5158225, "tags": {"amenity": "fast_food", "brand": "Coffee Like", "brand:wikidata": "Q55662627", "brand:wikipedia": "ru:Coffee Like", "contact:email": "hotline@coffee-like.com", "contact:phone": "+7 341 2908292;+7 800 3334130", "contact:website": "https://coffee-like.com/", "cuisine": "coffee_shop", "name": "Coffee Like", "opening_hours": "Mo-Fr 08:00-21:00; Sa, Su 09:00-21:00", "operator": "\u041e\u041e\u041e \"\u041a\u043e\u0444\u0435 \u041b\u0430\u0439\u043a \u0410\u0440\u0445\u0430\u043d\u0433\u0435\u043b\u044c\u0441\u043a\"", "takeaway": "yes", "wheelchair": "no"}}, {"type": "node", "id": 5313344422, "lat": 64.5163497, "lon": 40.6681623, "tags": {"amenity": "fast_food", "name": "\u0427\u0430\u0439\u043d\u0430\u044f", "opening_hours": "Mo-Su 10:00-20:00"}}, {"type": "node", "id": 5320357721, "lat": 64.5328687, "lon": 40.5903395, "tags": {"amenity": "fast_food", "contact:instagram": "https://www.instagram.com/arhcoffeeco", "contact:vk": "https://vk.com/arhcoffeeco", "cuisine": "coffee_shop", "name": "Orange", "opening_hours": "Mo-Fr 09:00-20:00; Sa,Su 10:00-20:00"}}, {"type": "node", "id": 5337411221, "lat": 64.5332728, "lon": 40.5665908, "tags": {"amenity": "fast_food", "cuisine": "coffee_shop", "name": "Coffee Street"}}, {"type": "node", "id": 5504029987, "lat": 64.5112019, "lon": 40.6708429, "tags": {"amenity": "fast_food", "level": "2", "name": "Vkuss\u0421\u0443\u0448\u0438", "opening_hours": "Mo-Su 10:00-21:00"}}, {"type": "node", "id": 5520445723, "lat": 64.5834755, "lon": 40.5122535, "tags": {"amenity": "fast_food", "name": "\u0411\u043e\u043d\u0443\u0441", "opening_hours": "Mo-Su 07:00-23:00"}}, {"type": "node", "id": 5549942001, "lat": 64.5872415, "lon": 40.5113795, "tags": {"amenity": "fast_food", "name": "\u041a\u0443\u043b\u0438\u043d\u0430\u0440\u0438\u044f", "opening_hours": "24/7", "wheelchair": "no"}}, {"type": "node", "id": 5584464195, "lat": 64.5343052, "lon": 40.5249524, "tags": {"amenity": "fast_food", "brand": "Coffee Like", "brand:wikidata": "Q55662627", "brand:wikipedia": "ru:Coffee Like", "contact:email": "hotline@coffee-like.com", "contact:phone": "+7 341 2908292;+7 800 3334130", "contact:website": "https://coffee-like.com/", "cuisine": "coffee_shop", "name": "Coffee Like", "opening_hours": "Mo-Fr 08:00-20:00; Sa, Su 09:00-20:00", "operator": "\u041e\u041e\u041e \"\u041a\u043e\u0444\u0435 \u041b\u0430\u0439\u043a \u0410\u0440\u0445\u0430\u043d\u0433\u0435\u043b\u044c\u0441\u043a\"", "takeaway": "yes", "wheelchair": "no"}}, {"type": "node", "id": 5586364824, "lat": 64.5328462, "lon": 40.5271222, "tags": {"amenity": "fast_food", "brand": "\u0414\u043e\u0434\u043e \u041f\u0438\u0446\u0446\u0430", "brand:en": "Dodo Pizza", "brand:ru": "\u0414\u043e\u0434\u043e \u041f\u0438\u0446\u0446\u0430", "brand:wikidata": "Q61949318", "brand:wikipedia": "ru:\u0414\u043e\u0434\u043e \u041f\u0438\u0446\u0446\u0430", "contact:phone": "+7 800 3020060", "contact:vk": "https://vk.com/dodo_arh", "contact:website": "https://dodopizza.ru/arkhangelsk", "cuisine": "pizza", "delivery": "yes", "name": "\u0414\u043e\u0434\u043e \u041f\u0438\u0446\u0446\u0430", "name:en": "Dodo Pizza", "name:ru": "\u0414\u043e\u0434\u043e \u041f\u0438\u0446\u0446\u0430", "opening_hours": "Mo-Su 09:00-23:00", "takeaway": "yes", "wheelchair": "no"}}, {"type": "node", "id": 5600406022, "lat": 64.5018318, "lon": 40.6369782, "tags": {"amenity": "fast_food", "name": "\u041f\u0435\u0447\u043a\u0430", "opening_hours": "Mo-Fr 08:00-21:00; Sa-Su 09:00-21:00"}}, {"type": "node", "id": 5770028853, "lat": 64.5501803, "lon": 40.5249789, "tags": {"amenity": "fast_food", "name": "\u0428\u0430\u0448\u043b\u044b\u0447\u043d\u0430\u044f", "opening_hours": "Mo-Su 10:00-22:00", "wheelchair": "no"}}, {"type": "node", "id": 5799368754, "lat": 64.5769447, "lon": 40.5089479, "tags": {"amenity": "fast_food", "contact:email": "hotline@coffee-like.com", "contact:phone": "+7 341 2908292;+7 800 3334130", "contact:website": "https://coffee-like.com/", "cuisine": "coffee_shop", "name": "Coffee Like", "opening_hours": "Mo-Fr 08:00-21:00; Sa, Su 09:00-21:00", "operator": "\u041e\u041e\u041e \"\u041a\u043e\u0444\u0435 \u041b\u0430\u0439\u043a \u0410\u0440\u0445\u0430\u043d\u0433\u0435\u043b\u044c\u0441\u043a\"", "wheelchair": "no"}}, {"type": "node", "id": 5809244854, "lat": 64.5830611, "lon": 40.50972, "tags": {"amenity": "fast_food", "name": "\u041a\u0443\u043b\u0438\u043d\u0430\u0440\u0438\u044f", "opening_hours": "closed", "wheelchair": "no"}}, {"type": "node", "id": 5833852235, "lat": 64.5633517, "lon": 40.5405734, "tags": {"amenity": "fast_food", "cuisine": "donner", "name": "Vostok_29", "website": "http://vk.com/vostok_29", "wheelchair": "no"}}, {"type": "node", "id": 6017790185, "lat": 64.5471712, "lon": 40.537777, "tags": {"amenity": "fast_food"}}, {"type": "node", "id": 6017990985, "lat": 64.5375212, "lon": 40.5657807, "tags": {"amenity": "fast_food", "name": "\u0414\u043e\u043d \u0428\u0430\u0443\u0440\u043c\u0430", "wheelchair": "limited"}}, {"type": "node", "id": 6032750099, "lat": 64.5783575, "lon": 40.5139015, "tags": {"amenity": "fast_food", "contact:email": "FeedBack@burgerking.ru", "contact:phone": "+7 495 5445000", "contact:website": "https://burgerking.ru/", "level": "3", "name": "\u0411\u0443\u0440\u0433\u0435\u0440 \u043a\u0438\u043d\u0433", "opening_hours": "Mo-Su 10:00-22:00", "operator": "\u0411\u0423\u0420\u0413\u0415\u0420 \u0420\u0423\u0421"}}, {"type": "node", "id": 6032750100, "lat": 64.5784197, "lon": 40.5138639, "tags": {"amenity": "fast_food", "level": "3", "name": "Subway", "opening_hours": "Mo-Su 10:00-21:00", "wheelchair": "yes"}}, {"type": "node", "id": 6071606251, "lat": 64.5322276, "lon": 40.5279838, "tags": {"amenity": "fast_food", "contact:instagram": "https://www.instagram.com/wokkida/", "contact:vk": "https://vk.com/wokkida", "contact:website": "http://www.wokkida.ru/", "cuisine": "noodle", "name": "Wokki'Da", "opening_hours": "10:00-21:00", "wheelchair": "limited"}}, {"type": "node", "id": 6126325371, "lat": 64.5313573, "lon": 40.53148, "tags": {"amenity": "fast_food", "contact:instagram": "https://www.instagram.com/gryadka_family/", "contact:phone": "+7 952 2596538", "contact:vk": "https://vk.com/gryadka29", "contact:website": "http://gryadka-family.ru/restorany/gryadka-kulinariya-tts-atrium/", "description": "\u043a\u0443\u043b\u0438\u043d\u0430\u0440\u0438\u044f", "name": "\u0413\u0440\u044f\u0434\u043a\u0430", "opening_hours": "Mo-Fr 10:00-19:00", "wheelchair": "limited"}}, {"type": "node", "id": 6161882548, "lat": 64.5314707, "lon": 40.6153876, "tags": {"amenity": "fast_food", "contact:email": "hotline@coffee-like.com", "contact:phone": "+7 341 2908292;+7 800 3334130", "contact:website": "https://coffee-like.com/", "name": "Coffee Like", "opening_hours": "Mo-Su 09:00-22:00", "operator": "\u041e\u041e\u041e \"\u041a\u043e\u0444\u0435 \u041b\u0430\u0439\u043a \u0410\u0440\u0445\u0430\u043d\u0433\u0435\u043b\u044c\u0441\u043a\""}}, {"type": "node", "id": 6216443731, "lat": 64.5430247, "lon": 40.5353524, "tags": {"amenity": "fast_food", "cuisine": "coffee_shop", "name": "Coffee Like", "opening_hours": "Mo-Su 09:00-21:00", "takeaway": "only", "wheelchair": "limited"}}, {"type": "node", "id": 6221460587, "lat": 64.5782879, "lon": 40.5139654, "tags": {"amenity": "fast_food", "contact:website": "https://arhangelsk.sushi-market.com/", "cuisine": "sushi", "level": "3", "name": "\u0421\u0443\u0448\u0438 \u043c\u0430\u0440\u043a\u0435\u0442", "opening_hours": "Mo-Su 10:00-21:00", "operator": "\u0418\u041f \u041c\u0435\u0440\u043a\u0443\u043b\u044c\u0435\u0432\u0430 \u041b.\u0410.", "wheelchair": "yes"}}, {"type": "node", "id": 6238134386, "lat": 64.5244456, "lon": 40.6012479, "tags": {"amenity": "fast_food", "contact:email": "hotline@coffee-like.com", "contact:phone": "+7 341 2908292;+7 800 3334130", "contact:website": "https://coffee-like.com/", "cuisine": "coffee_shop", "name": "Coffee Like", "opening_hours": "Mo-Su 08:00-24:00", "operator": "\u041e\u041e\u041e \"\u041a\u043e\u0444\u0435 \u041b\u0430\u0439\u043a \u0410\u0440\u0445\u0430\u043d\u0433\u0435\u043b\u044c\u0441\u043a\""}}, {"type": "node", "id": 6239974644, "lat": 64.5421745, "lon": 40.5697504, "tags": {"amenity": "fast_food", "name": "\u041a\u043e\u0444\u0435 \u043f\u043e\u043b\u0430\u0440\u0438\u0442\u0438"}}, {"type": "node", "id": 6253966885, "lat": 64.5240413, "lon": 40.5990072, "tags": {"amenity": "fast_food", "name": "\u0411\u0443\u0440\u0433\u0435\u0440 \u041a\u0438\u043d\u0433"}}, {"type": "node", "id": 6253966985, "lat": 64.5238308, "lon": 40.5998167, "tags": {"amenity": "fast_food", "name": "Rotana"}}, {"type": "node", "id": 6283562257, "lat": 64.5454488, "lon": 40.5235313, "tags": {"amenity": "fast_food", "contact:instagram": "https://www.instagram.com/arhcoffeeco", "contact:vk": "https://vk.com/arhcoffeeco", "cuisine": "coffee_shop", "name": "Arh Coffee Co.", "opening_hours": "Mo-Fr 15:00-20:00; Sa 10:00-15:00"}}, {"type": "node", "id": 6283562258, "lat": 64.5569928, "lon": 40.5278537, "tags": {"amenity": "fast_food", "contact:instagram": "https://www.instagram.com/arhcoffeeco", "contact:vk": "https://vk.com/arhcoffeeco", "cuisine": "coffee_shop", "name": "Arh Coffee Co.", "opening_hours": "Mo-Su 09:30-20:30"}}, {"type": "node", "id": 6283562259, "lat": 64.5580529, "lon": 40.5576342, "tags": {"amenity": "fast_food", "contact:instagram": "https://www.instagram.com/arhcoffeeco", "contact:vk": "https://vk.com/arhcoffeeco", "cuisine": "coffee_shop", "name": "Arh Coffee Co.", "opening_hours": "Mo-Fr 08:30-17:00"}}, {"type": "node", "id": 6286465185, "lat": 64.5369952, "lon": 40.5226082, "tags": {"amenity": "fast_food", "contact:instagram": "https://www.instagram.com/cups_arh", "contact:phone": "+7 8182 440594", "cuisine": "coffee_shop", "name": "Cups", "opening_hours": "Mo-Fr 09:00-21:00; Sa, Su 10:00-21:00"}}, {"type": "node", "id": 6326282679, "lat": 64.5244655, "lon": 40.602006, "tags": {"amenity": "fast_food", "contact:vk": "https://vk.com/stardonutsarhangelsk", "contact:website": "http://stardonuts.ru/arkhangelsk/", "cuisine": "coffee_shop;donut", "name": "Star Donuts", "opening_hours": "Mo-Su 10:00-21:00", "wheelchair": "yes"}}, {"type": "node", "id": 6326282680, "lat": 64.5324456, "lon": 40.5281514, "tags": {"amenity": "fast_food", "contact:vk": "https://vk.com/stardonutsarhangelsk", "contact:website": "http://stardonuts.ru/arkhangelsk/", "cuisine": "coffee_shop;donut", "name": "Star Donuts", "opening_hours": "Mo-Su 10:00-21:00", "wheelchair": "yes"}}, {"type": "node", "id": 6326282681, "lat": 64.5495317, "lon": 40.5502367, "tags": {"amenity": "fast_food", "contact:vk": "https://vk.com/stardonutsarhangelsk", "contact:website": "http://stardonuts.ru/arkhangelsk/", "cuisine": "coffee_shop;donut", "name": "Star Donuts", "opening_hours": "Mo-Su 10:00-21:00", "wheelchair": "yes"}}, {"type": "node", "id": 6343292286, "lat": 64.5584807, "lon": 40.5585784, "tags": {"amenity": "fast_food", "contact:phone": "+7 800 7006776", "contact:website": "https://arhangelsk.sushi-market.com/", "cuisine": "sushi", "level": "1", "name": "\u0421\u0443\u0448\u0438 \u043c\u0430\u0440\u043a\u0435\u0442", "opening_hours": "Mo-Su 10:00-22:00"}}, {"type": "node", "id": 6343796203, "lat": 64.5239279, "lon": 40.5990234, "tags": {"amenity": "fast_food", "contact:phone": "+7 800 7006776", "contact:website": "https://arhangelsk.sushi-market.com/", "cuisine": "sushi", "level": "1", "name": "\u0421\u0443\u0448\u0438 \u043c\u0430\u0440\u043a\u0435\u0442", "opening_hours": "Mo-Su 10:00-21:00"}}, {"type": "node", "id": 6398765585, "lat": 64.5490431, "lon": 40.564281, "tags": {"amenity": "fast_food", "name": "\u0411\u0438\u0441\u0442\u0440\u043e \"\u041e\u0447\u0430\u0433\"", "opening_hours": "Tu-Su 11:00-22:00", "wheelchair": "no"}}, {"type": "node", "id": 6404148586, "lat": 64.5541765, "lon": 40.5539172, "tags": {"amenity": "fast_food", "name": "\u0426\u0430\u0440\u0441\u043a\u0430\u044f \u0448\u0430\u0443\u0440\u043c\u0430"}}, {"type": "node", "id": 6424059385, "lat": 64.5473014, "lon": 40.57594, "tags": {"amenity": "fast_food", "name": "\u0428\u0430\u0443\u0440\u043c\u0435\u043d\u043d\u0430\u044f", "opening_hours": "Mo-Su 10:00-02:00"}}, {"type": "node", "id": 6485483185, "lat": 64.5484592, "lon": 40.5248943, "tags": {"amenity": "fast_food", "contact:instagram": "https://www.instagram.com/arh.coffeeco/", "contact:vk": "https://vk.com/arhcoffeeco", "cuisine": "coffee_shop", "name": "Coffee co.", "opening_hours": "Mo-Sa 08:00-22:00; Su 09:00-22:00", "wheelchair": "no"}}, {"type": "node", "id": 6494913487, "lat": 64.544678, "lon": 40.516355, "tags": {"amenity": "fast_food", "brand": "Coffee Like", "brand:wikidata": "Q55662627", "brand:wikipedia": "ru:Coffee Like", "contact:email": "hotline@coffee-like.com", "contact:phone": "+7 341 2908292;+7 800 3334130", "contact:website": "https://coffee-like.com/", "cuisine": "coffee_shop", "name": "Coffee Like", "opening_hours": "Mo-Su 10:00-21:00", "operator": "\u041e\u041e\u041e \"\u041a\u043e\u0444\u0435 \u041b\u0430\u0439\u043a \u0410\u0440\u0445\u0430\u043d\u0433\u0435\u043b\u044c\u0441\u043a\"", "takeaway": "yes"}}, {"type": "node", "id": 6494913488, "lat": 64.532316, "lon": 40.528249, "tags": {"amenity": "fast_food", "brand": "Coffee Like", "brand:wikidata": "Q55662627", "brand:wikipedia": "ru:Coffee Like", "contact:email": "hotline@coffee-like.com", "contact:phone": "+7 341 2908292;+7 800 3334130", "contact:website": "https://coffee-like.com/", "cuisine": "coffee_shop", "name": "Coffee Like", "opening_hours": "Mo-Su 10:00-21:00", "operator": "\u041e\u041e\u041e \"\u041a\u043e\u0444\u0435 \u041b\u0430\u0439\u043a \u0410\u0440\u0445\u0430\u043d\u0433\u0435\u043b\u044c\u0441\u043a\"", "takeaway": "yes"}}, {"type": "node", "id": 6494913489, "lat": 64.529574, "lon": 40.541508, "tags": {"amenity": "fast_food", "brand": "Coffee Like", "brand:wikidata": "Q55662627", "brand:wikipedia": "ru:Coffee Like", "contact:email": "hotline@coffee-like.com", "contact:phone": "+7 341 2908292;+7 800 3334130", "contact:website": "https://coffee-like.com/", "cuisine": "coffee_shop", "name": "Coffee Like", "opening_hours": "Mo-Su 08:00-21:00", "operator": "\u041e\u041e\u041e \"\u041a\u043e\u0444\u0435 \u041b\u0430\u0439\u043a \u0410\u0440\u0445\u0430\u043d\u0433\u0435\u043b\u044c\u0441\u043a\"", "takeaway": "yes"}}, {"type": "node", "id": 6494913490, "lat": 64.541949, "lon": 40.535031, "tags": {"amenity": "fast_food", "brand": "Coffee Like", "brand:wikidata": "Q55662627", "brand:wikipedia": "ru:Coffee Like", "contact:email": "hotline@coffee-like.com", "contact:phone": "+7 341 2908292;+7 800 3334130", "contact:website": "https://coffee-like.com/", "cuisine": "coffee_shop", "name": "Coffee Like", "opening_hours": "24/7", "operator": "\u041e\u041e\u041e \"\u041a\u043e\u0444\u0435 \u041b\u0430\u0439\u043a \u0410\u0440\u0445\u0430\u043d\u0433\u0435\u043b\u044c\u0441\u043a\"", "takeaway": "yes"}}, {"type": "node", "id": 6494913491, "lat": 64.549552, "lon": 40.55015, "tags": {"amenity": "fast_food", "brand": "Coffee Like", "brand:wikidata": "Q55662627", "brand:wikipedia": "ru:Coffee Like", "contact:email": "hotline@coffee-like.com", "contact:phone": "+7 341 2908292;+7 800 3334130", "contact:website": "https://coffee-like.com/", "cuisine": "coffee_shop", "name": "Coffee Like", "opening_hours": "Mo-Su 08:00-22:00", "operator": "\u041e\u041e\u041e \"\u041a\u043e\u0444\u0435 \u041b\u0430\u0439\u043a \u0410\u0440\u0445\u0430\u043d\u0433\u0435\u043b\u044c\u0441\u043a\"", "takeaway": "yes"}}, {"type": "node", "id": 6494913492, "lat": 64.553811, "lon": 40.551964, "tags": {"amenity": "fast_food", "brand": "Coffee Like", "brand:wikidata": "Q55662627", "brand:wikipedia": "ru:Coffee Like", "contact:email": "hotline@coffee-like.com", "contact:phone": "+7 341 2908292;+7 800 3334130", "contact:website": "https://coffee-like.com/", "cuisine": "coffee_shop", "name": "Coffee Like", "opening_hours": "Mo-Fr 08:00-22:00;Sa-Su 10:00-21:00", "operator": "\u041e\u041e\u041e \"\u041a\u043e\u0444\u0435 \u041b\u0430\u0439\u043a \u0410\u0440\u0445\u0430\u043d\u0433\u0435\u043b\u044c\u0441\u043a\"", "takeaway": "yes", "wheelchair": "no"}}, {"type": "node", "id": 6494913493, "lat": 64.53143, "lon": 40.531303, "tags": {"amenity": "fast_food", "brand": "Coffee Like", "brand:wikidata": "Q55662627", "brand:wikipedia": "ru:Coffee Like", "contact:email": "hotline@coffee-like.com", "contact:phone": "+7 341 2908292;+7 800 3334130", "contact:website": "https://coffee-like.com/", "cuisine": "coffee_shop", "name": "Coffee Like", "opening_hours": "Mo-Su 10:00-21:00", "operator": "\u041e\u041e\u041e \"\u041a\u043e\u0444\u0435 \u041b\u0430\u0439\u043a \u0410\u0440\u0445\u0430\u043d\u0433\u0435\u043b\u044c\u0441\u043a\"", "takeaway": "yes"}}, {"type": "node", "id": 6499336698, "lat": 64.5423758, "lon": 40.5593785, "tags": {"amenity": "fast_food", "capacity": "140", "contact:email": "volpf35@gmail.com", "contact:instagram": "https://www.instagram.com/pizzafab_arh/", "contact:phone": "+7 800 5500600;+7 931 4030502", "contact:vk": "https://vk.com/pizzafab_arh", "contact:website": "https://pizzafabrika.ru/", "cuisine": "pizza;sushi", "name": "\u041f\u0438\u0446\u0446\u0430\u0424\u0430\u0431\u0440\u0438\u043a\u0430", "opening_hours": "Mo-Su 10:00-23:00", "operator": "\u0413\u0432\u0430\u0440\u0434\u0438\u044f", "wheelchair": "no"}}, {"type": "node", "id": 6549790086, "lat": 64.5310593, "lon": 40.6166203, "tags": {"amenity": "fast_food", "cuisine": "chicken", "drive_through": "yes", "internet_access": "wlan", "internet_access:fee": "no", "name": "KFC", "opening_hours": "Mo-Su 10:00-22:00", "operator": "\u041e\u041e\u041e \"\u0410\u043c\u0440\u0435\u0441\u0442\"", "smoking": "no", "takeaway": "yes", "wheelchair": "yes"}}, {"type": "node", "id": 6676207805, "lat": 64.563776, "lon": 40.545189, "tags": {"amenity": "fast_food", "contact:email": "hotline@coffee-like.com", "contact:phone": "+7 341 2908292;+7 800 3334130", "contact:website": "https://coffee-like.com/", "name": "Coffee Like", "opening_hours": "Mo-Fr 08:30-16:30", "operator": "\u041e\u041e\u041e \"\u041a\u043e\u0444\u0435 \u041b\u0430\u0439\u043a \u0410\u0440\u0445\u0430\u043d\u0433\u0435\u043b\u044c\u0441\u043a\""}}, {"type": "node", "id": 6871469086, "lat": 64.5332357, "lon": 40.5388901, "tags": {"amenity": "fast_food", "cuisine": "coffee_shop", "name": "Scandinavia", "opening_hours": "Mo-Fr 08:30-19:00; Sa, Su 10:00-19:00"}}, {"type": "node", "id": 6996114784, "lat": 64.532672, "lon": 40.527807, "tags": {"amenity": "fast_food", "brand": "Coffee Like", "brand:wikidata": "Q55662627", "brand:wikipedia": "ru:Coffee Like", "contact:email": "hotline@coffee-like.com", "contact:phone": "+7 341 2908292;+7 800 3334130", "contact:website": "https://coffee-like.com/", "cuisine": "coffee_shop", "name": "Coffee Like", "opening_hours": "Mo-Su 9:00-22:00", "operator": "\u041e\u041e\u041e \"\u041a\u043e\u0444\u0435 \u041b\u0430\u0439\u043a \u0410\u0440\u0445\u0430\u043d\u0433\u0435\u043b\u044c\u0441\u043a\"", "takeaway": "yes"}}, {"type": "node", "id": 7128877737, "lat": 64.5394965, "lon": 40.5687496, "tags": {"amenity": "fast_food", "name": "\u0428\u0430\u0443\u0440\u043c\u0435\u043d\u043d\u0430\u044f", "opening_hours": "Mo-Su 10:00-24:00", "phone": "+7 8182 474208", "wheelchair": "no"}}, {"type": "node", "id": 7208585703, "lat": 64.5594656, "lon": 40.5250305, "tags": {"amenity": "fast_food", "contact:email": "hotline@coffee-like.com", "contact:phone": "+7 341 2908292;+7 800 3334130", "contact:website": "https://coffee-like.com/", "name": "Coffee Like", "opening_hours": "Mo-Su 09:00-21:00", "operator": "\u041e\u041e\u041e \"\u041a\u043e\u0444\u0435 \u041b\u0430\u0439\u043a \u0410\u0440\u0445\u0430\u043d\u0433\u0435\u043b\u044c\u0441\u043a\""}}, {"type": "node", "id": 7253337904, "lat": 64.5252922, "lon": 40.5986847, "tags": {"amenity": "fast_food", "cuisine": "coffee_shop", "name": "il Motorre coffee", "opening_hours": "Mo-Su 08:00-24:00"}}, {"type": "node", "id": 7259208174, "lat": 64.5289548, "lon": 40.5418132, "tags": {"amenity": "fast_food", "cuisine": "coffee_shop", "level": "1", "name": "Coffee Way", "takeaway": "only"}}, {"type": "node", "id": 7271579411, "lat": 64.5289305, "lon": 40.5420459, "tags": {"amenity": "fast_food", "cuisine": "burger", "level": "2", "name": "Starfoods", "opening_hours": "open", "takeaway": "only"}}, {"type": "node", "id": 7271579412, "lat": 64.5289986, "lon": 40.5418863, "tags": {"amenity": "fast_food", "cuisine": "sushi", "level": "2", "name": "Vkuss \u0421\u0443\u0448\u0438", "takeaway": "only"}}, {"type": "node", "id": 7316268022, "lat": 64.5322167, "lon": 40.5834034, "tags": {"amenity": "fast_food", "cuisine": "sushi", "name": "\u0421\u0443\u0448\u0438 \u043c\u0430\u0440\u043a\u0435\u0442", "opening_hours": "Mo-Su 10:00-22:00", "wheelchair": "limited"}}, {"type": "node", "id": 7504003199, "lat": 64.5337381, "lon": 40.554068, "tags": {"amenity": "fast_food", "contact:instagram": "https://www.instagram.com/gryadka_family/", "contact:phone": "+7 952 2595925", "contact:vk": "https://vk.com/gryadka29", "contact:website": "http://gryadka-family.ru/restorany/gryadka-novgorodskiy-32/", "name": "\u0413\u0440\u044f\u0434\u043a\u0430", "opening_hours": "Mo-Su 09:00-19:00", "wheelchair": "no"}}, {"type": "node", "id": 7505840270, "lat": 64.5241205, "lon": 40.6019577, "tags": {"amenity": "fast_food", "contact:email": "FeedBack@burgerking.ru", "contact:phone": "+7 495 5445000", "contact:vk": "https://vk.com/burgerking", "contact:website": "https://burgerking.ru/", "name": "\u0411\u0443\u0440\u0433\u0435\u0440 \u043a\u0438\u043d\u0433", "opening_hours": "10:00-21:30", "operator": "\u0411\u0423\u0420\u0413\u0415\u0420 \u0420\u0423\u0421"}}, {"type": "node", "id": 7505868633, "lat": 64.541951, "lon": 40.5354175, "tags": {"amenity": "fast_food", "contact:email": "FeedBack@burgerking.ru", "contact:phone": "+7 495 5445000", "contact:vk": "https://vk.com/burgerking", "contact:website": "https://burgerking.ru/", "name": "\u0411\u0443\u0440\u0433\u0435\u0440 \u043a\u0438\u043d\u0433", "opening_hours": "10:00-22:00", "operator": "\u0411\u0423\u0420\u0413\u0415\u0420 \u0420\u0423\u0421"}}, {"type": "node", "id": 7549035792, "lat": 64.5399696, "lon": 40.52079, "tags": {"amenity": "fast_food", "name": "Starfoods", "opening_hours": "Mo-Su 09:00-21:00", "operator": "\u0418\u041f \u041b\u0435\u043d\u0438\u043d\u0430 \u041d\u0430\u0434\u0435\u0436\u0434\u0430 \u041d\u0438\u043a\u043e\u043b\u0430\u0435\u0432\u043d\u0430", "wheelchair": "no"}}, {"type": "node", "id": 7707550098, "lat": 64.5111237, "lon": 40.674424, "tags": {"amenity": "fast_food", "name": "\u041a\u0443\u043b\u0438\u043d\u0430\u0440\u0438\u044f", "opening_hours": "24/7", "wheelchair": "no"}}, {"type": "node", "id": 7730759936, "lat": 64.5327427, "lon": 40.5269267, "tags": {"amenity": "fast_food", "cuisine": "burger", "name": "\u041a\u0440\u0430\u0441\u043d\u043e\u0434\u0430\u0440\u0441\u043a\u0438\u0439 \u043f\u0430\u0440\u0435\u043d\u044c", "opening_hours": "Mo-Su 12:00-23:00", "operator": "\u0418\u041f \u041b\u0443\u0431 \u0415.\u0410.", "wheelchair": "no"}}, {"type": "node", "id": 7817826552, "lat": 64.5111801, "lon": 40.6705744, "tags": {"amenity": "fast_food", "name": "\u0412\u0430\u0448 \u043b\u0430\u0432\u0430\u0448", "opening_hours": "Mo-Su 08:00-22:00", "wheelchair": "limited"}}, {"type": "node", "id": 8081581061, "lat": 64.5306911, "lon": 40.617405, "tags": {"amenity": "fast_food", "name": "\u0428\u0430\u0443\u0440\u043c\u0435\u043d\u043d\u0430\u044f", "opening_hours": "Mo-Su 10:00-23:00", "operator": "\u0418\u041f \u0413\u0443\u0441\u0435\u0439\u043d\u043e\u0432 \u0414\u0436\u0430\u043d\u043f\u043e\u043b\u0430\u0434 \u0411\u0435\u0439\u0431\u0443\u0434 \u043e\u0433\u043b\u044b", "phone": "+7 995 1071516", "takeaway": "only"}}, {"type": "node", "id": 8295045301, "lat": 64.5340048, "lon": 40.5726211, "tags": {"amenity": "fast_food", "cuisine": "coffee_shop", "name": "\u041f\u0438\u0432\u043e\u043c\u0430\u043d & \u041a\u043e\u0444\u0435\u043c\u0430\u043d", "opening_hours": "Mo-Su 00:00-02:00,10:00-24:00", "shop": "beverages", "wheelchair": "no"}}, {"type": "node", "id": 8296961717, "lat": 64.5765859, "lon": 40.508579, "tags": {"amenity": "fast_food", "name": "\u041d\u0430 \u0443\u0433\u043b\u044f\u0445", "opening_hours": "Mo-Su 10:00-22:00"}}, {"type": "node", "id": 8300508624, "lat": 64.5420427, "lon": 40.5596074, "tags": {"amenity": "fast_food", "cuisine": "coffee_shop", "name": "Il Motorre coffee", "opening_hours": "Mo-Su 08:00-22:00"}}, {"type": "node", "id": 8547484165, "lat": 64.5373907, "lon": 40.5657909, "tags": {"amenity": "fast_food", "name": "\u0421\u0443\u0448\u0438 \u043c\u0430\u0440\u043a\u0435\u0442", "opening_hours": "Mo-Su 10:00-22:00", "operator": "\u0418\u041f \u041c\u0435\u0440\u043a\u0443\u043b\u044c\u0435\u0432\u0430 \u041b.\u0410.", "wheelchair": "limited"}}, {"type": "node", "id": 8688059993, "lat": 64.5515226, "lon": 40.5719448, "tags": {"amenity": "fast_food", "name": "Starfoods", "opening_hours": "Mo-Su 00:00-03:00, 04:00-24:00", "wheelchair": "no"}}, {"type": "node", "id": 8690700323, "lat": 64.5546017, "lon": 40.5556555, "tags": {"amenity": "fast_food", "contact:phone": "+7 911 5701356", "contact:vk": "https://vk.com/vinbakery", "name": "\u0412\u0438\u043d\u0435\u0433\u0440\u0435\u0442", "opening_hours": "Mo-Fr 10:00-20:00; Sa, Su 10:00-19:00", "wheelchair": "no"}}, {"type": "node", "id": 8724177784, "lat": 64.5347898, "lon": 40.5225916, "tags": {"amenity": "fast_food", "name": "Coffee News", "opening_hours": "closed"}}, {"type": "node", "id": 8755981104, "lat": 64.5450749, "lon": 40.5554045, "tags": {"amenity": "fast_food", "contact:instagram": "https://www.instagram.com/smetana29/", "contact:phone": "+7 8182 492772", "contact:vk": "https://vk.com/smetana_blini_rolli", "cuisine": "sushi", "name": "Smetana", "opening_hours": "Mo-Su 12:00-24:00", "smoking": "no", "takeaway": "yes", "wheelchair": "no"}}, {"type": "node", "id": 8821674207, "lat": 64.5336382, "lon": 40.5511762, "tags": {"amenity": "fast_food", "cuisine": "coffee_shop;doner", "name": "\u0413\u0438\u0433\u0430\u043d\u0442", "opening_hours": "Mo-Sa 10:00-21:00; Su 11:00-21:00"}}, {"type": "node", "id": 8841563888, "lat": 64.529389, "lon": 40.5608204, "tags": {"amenity": "fast_food", "name": "\u0428\u0430\u0443\u0440Man", "opening_hours": "Mo-Su 10:00-22:00", "wheelchair": "no"}}, {"type": "node", "id": 8849072082, "lat": 64.5834645, "lon": 40.5120397, "tags": {"amenity": "fast_food", "name": "\u0411\u043e\u043d\u0443\u0441", "opening_hours": "24/7", "wheelchair": "no"}}, {"type": "node", "id": 8861042139, "lat": 64.5389439, "lon": 40.5121748, "tags": {"amenity": "fast_food"}}, {"type": "node", "id": 9124718323, "lat": 64.5372286, "lon": 40.5668224, "tags": {"amenity": "fast_food", "name": "Coffee Like", "opening_hours": "24/7"}}, {"type": "node", "id": 9178356362, "lat": 64.5580929, "lon": 40.5582091, "tags": {"amenity": "fast_food", "name": "\u0428\u0430\u0443\u0440\u043c\u0435\u043d\u043d\u0430\u044f", "opening_hours": "Mo-Su 10:00-23:00", "operator": "\u0418\u041f \u0413\u0443\u0441\u0435\u0439\u043d\u043e\u0432 \u0414\u0436\u0430\u043d\u043f\u043e\u043b\u0430\u0434 \u0411\u0435\u0439\u0431\u0443\u0442 \u043e\u0433\u043b\u044b", "phone": "+7 952 3042885", "wheelchair": "no"}}, {"type": "node", "id": 9180236281, "lat": 64.5762481, "lon": 40.5170557, "tags": {"amenity": "fast_food", "name": "\u0428\u0430\u0443\u0440\u043c\u0430"}}, {"type": "node", "id": 9180266920, "lat": 64.5984096, "lon": 40.5958965, "tags": {"amenity": "fast_food", "name": "\u0428\u0430\u0443\u0440\u043c\u0435\u043d\u043d\u0430\u044f+"}}, {"type": "node", "id": 9287925845, "lat": 64.5378225, "lon": 40.552507, "tags": {"amenity": "fast_food", "description": "\u0448\u0430\u0443\u0440\u043c\u0435\u043d\u043d\u0430\u044f", "name": "\u041c\u044f\u0441\u043e"}}, {"type": "way", "id": 180382208, "nodes": [1908339976, 1908339970, 1908339931, 1908339944, 1908339976], "tags": {"amenity": "fast_food", "building": "retail", "name": "\u041a\u0443\u043b\u0438\u043d\u0430\u0440\u0438\u044f", "opening_hours": "24/7"}}, {"type": "way", "id": 196828386, "nodes": [2071224011, 2071224009, 2071223996, 2071223998, 2071224011], "tags": {"amenity": "fast_food", "building": "retail", "building:levels": "1", "name": "Coffee Like", "opening_hours": "Mo-Su 09:00-21:00", "operator": "\u041e\u041e\u041e \"\u041a\u043e\u0444\u0435 \u043b\u0430\u0439\u043a \u0410\u0440\u0445\u0430\u043d\u0433\u0435\u043b\u044c\u0441\u043a\"", "wheelchair": "no"}}, {"type": "way", "id": 198561670, "nodes": [2086878115, 2086878122, 2086878104, 2086878099, 2086878115], "tags": {"amenity": "fast_food", "building": "kiosk", "contact:email": "hotline@coffee-like.com", "contact:phone": "+7 341 2908292;+7 800 3334130", "contact:website": "https://coffee-like.com/", "cuisine": "coffee_shop", "name": "Coffee Like", "opening_hours": "Mo-Su 08:00-21:00", "operator": "\u041e\u041e\u041e \"\u041a\u043e\u0444\u0435 \u041b\u0430\u0439\u043a \u0410\u0440\u0445\u0430\u043d\u0433\u0435\u043b\u044c\u0441\u043a\""}}, {"type": "way", "id": 204636904, "nodes": [2146289887, 2146289885, 2146289882, 2146289883, 2146289887], "tags": {"amenity": "fast_food", "building": "yes", "building:levels": "1", "cuisine": "sandwich", "name": "\u0411\u0443\u043b\u043e\u0447\u043a\u0430 \u043d\u0430 \u0443\u043b\u043e\u0447\u043a\u0435", "opening_hours": "Mo-Fr 08:00-20:00; Sa, Su 10:00-19:00", "operator": "\u0418\u041f \u0411\u0435\u043b\u043e\u043a\u043e\u0440\u043e\u0432\u0438\u043d\u0430 \u0410.\u042d."}}, {"type": "way", "id": 220529716, "nodes": [2296420156, 2296420157, 2296420155, 2296420154, 2296420156], "tags": {"amenity": "fast_food", "building": "retail", "building:levels": "1", "name": "\u041f\u0438\u0432\u043e\u043c\u0430\u043d & \u043a\u043e\u0444\u0435\u043c\u0430\u043d", "opening_hours": "24/7"}}, {"type": "way", "id": 224124503, "nodes": [2329531279, 2329531278, 2329531274, 4166409835, 2329531276, 2329531279], "tags": {"amenity": "fast_food", "building": "yes", "building:levels": "1", "name": "\u041a\u0443\u043b\u0438\u043d\u0430\u0440\u0438\u044f", "opening_hours": "24/7", "wheelchair": "no"}}, {"type": "way", "id": 355547108, "nodes": [3611406809, 3611406818, 3611406814, 3611406817, 3611406809], "tags": {"amenity": "fast_food", "building": "retail", "building:levels": "1", "name": "\u041a\u0443\u0440\u0430 \u0413\u0440\u0438\u043b\u044c"}}]}